{
    "links": {
        "self": "http://www.neowsapp.com/rest/v1/neo/3843504?api_key=iIulBulltgU6a56xZRHN4H3l9WmuAYTsLGpBGhQ2"
    },
    "id": "3843504",
    "neo_reference_id": "3843504",
    "name": "(2019 PE1)",
    "designation": "2019 PE1",
    "nasa_jpl_url": "http://ssd.jpl.nasa.gov/sbdb.cgi?sstr=3843504",
    "absolute_magnitude_h": 24.5,
    "estimated_diameter": {
        "kilometers": {
            "estimated_diameter_min": 0.0334622374,
            "estimated_diameter_max": 0.0748238376
        },
        "meters": {
            "estimated_diameter_min": 33.4622374455,
            "estimated_diameter_max": 74.8238376074
        },
        "miles": {
            "estimated_diameter_min": 0.0207924639,
            "estimated_diameter_max": 0.0464933628
        },
        "feet": {
            "estimated_diameter_min": 109.7842471007,
            "estimated_diameter_max": 245.4850393757
        }
    },
    "is_potentially_hazardous_asteroid": false,
    "close_approach_data": [
        {
            "close_approach_date": "2019-07-26",
            "close_approach_date_full": "2019-Jul-26 03:57",
            "epoch_date_close_approach": 1564113420000,
            "relative_velocity": {
                "kilometers_per_second": "11.66447523",
                "kilometers_per_hour": "41992.1108279381",
                "miles_per_hour": "26092.2646419485"
            },
            "miss_distance": {
                "astronomical": "0.024352157",
                "lunar": "9.472989073",
                "kilometers": "3643030.81710559",
                "miles": "2263674.381773542"
            },
            "orbiting_body": "Earth"
        }
    ],
    "orbital_data": {
        "orbit_id": "2",
        "orbit_determination_date": "2019-08-26 05:14:24",
        "first_observation_date": "2019-08-07",
        "last_observation_date": "2019-08-26",
        "data_arc_in_days": 19,
        "observations_used": 14,
        "orbit_uncertainty": "8",
        "minimum_orbit_intersection": ".018512",
        "jupiter_tisserand_invariant": "3.652",
        "epoch_osculation": "2458705.5",
        "eccentricity": ".5390078256021308",
        "semi_major_axis": "1.984177524676366",
        "inclination": "8.315462260197121",
        "ascending_node_longitude": "131.0083906279101",
        "orbital_period": "1020.867118770319",
        "perihelion_distance": ".9146903114919396",
        "perihelion_argument": "127.6146076459603",
        "aphelion_distance": "3.053664737860792",
        "perihelion_time": "2458656.204206140469",
        "mean_anomaly": "17.3837372789591",
        "mean_motion": ".3526413902268067",
        "equinox": "J2000",
        "orbit_class": {
            "orbit_class_type": "APO",
            "orbit_class_description": "Near-Earth asteroid orbits which cross the Earth’s orbit similar to that of 1862 Apollo",
            "orbit_class_range": "a (semi-major axis) > 1.0 AU; q (perihelion) < 1.017 AU"
        }
    },
    "is_sentry_object": false
}